satname,norad_id,inclination_deg,eccentricity,mean_motion_rev_per_day,perigee_km,apogee_km,l1,l2
STARLINK-1008,44714,53.0535,0.0001281,15.06408388,546.2987161885703,548.0729839027517,1 44714U 19074B   25346.06068064  .00001151  00000+0  96119-4 0  9998,2 44714  53.0535 219.9992 0001281  85.6218 274.4917 15.06408388335543
STARLINK-1012,44718,53.0538,0.0001503,15.06403971,546.1585093629119,548.2402654809712,1 44718U 19074F   25346.03856614  .00000310  00000+0  39679-4 0  9999,2 44718  53.0538 220.0967 0001503  87.4314 272.6847 15.06403971335533
STARLINK-1017,44723,53.0492,0.0006532,15.17670324,508.3823591680148,517.3847884456354,1 44723U 19074L   25346.06623545  .00021207  00000+0  10521-2 0  9994,2 44723  53.0492 213.6277 0006532  93.3319 266.8422 15.17670324335633
STARLINK-1019,44724,53.0521,0.0004249,15.56162151,395.8969918711291,401.6560129654845,1 44724U 19074M   25346.16524145  .00047629  00000+0  67119-3 0  9994,2 44724  53.0521 208.1999 0004249 133.4696 226.6669 15.56162151335717
STARLINK-1020,44725,53.0528,8.83e-05,15.06421455,546.5342997623684,547.7573047052429,1 44725U 19074N   25346.10674406  .00012967  00000+0  88730-3 0  9994,2 44725  53.0528 239.7937 0000883 113.2120 246.8962 15.06421455335265
STARLINK-1031,44736,53.0482,0.0007648,15.5885972,385.7790536330149,396.1330583714762,1 44736U 19074Z   25346.00005786  .00166524  00000+0  20734-2 0  9992,2 44736  53.0482 195.8764 0007648  85.8985  12.1493 15.58859720  5966
STARLINK-1036,44741,53.0533,0.0001371,15.06416269,546.2122377939395,548.1111546964485,1 44741U 19074AE  25346.00354146 -.00004783  00000+0 -30226-3 0  9993,2 44741  53.0533 240.2515 0001371  81.5902 278.5242 15.06416269335255
STARLINK-1039,44744,53.051,0.0002934,15.15251177,518.1921366919232,522.240090298923,1 44744U 19074AH  25346.18417868  .00010673  00000+0  57617-3 0  9992,2 44744  53.0510 255.1071 0002934  45.0017 315.1214 15.15251177335064
STARLINK-1042,44747,53.0452,0.0002278,15.45228699,429.15511380294356,432.2572227504106,1 44747U 19074AL  25344.78375888  .00029175  00000+0  61081-3 0  9991,2 44747  53.0452 159.8253 0002278 194.2798 165.8143 15.45228699336303
STARLINK-1043,44748,53.0552,0.0002731,15.43907013,432.7309364470866,436.4520487497439,1 44748U 19074AM  25346.12772370  .00045604  00000+0  99121-3 0  9990,2 44748  53.0552 254.2748 0002731 105.4114 254.7193 15.43907013335072
STARLINK-1046,44751,53.0544,0.0001371,15.06431211,546.1664501971363,548.065354542965,1 44751U 19074AQ  25346.05698940  .00018082  00000+0  12286-2 0  9992,2 44751  53.0544 260.0161 0001371 100.6363 259.4781 15.06431211334988
STARLINK-1047,44752,53.0703,0.0001233,15.30389401,473.80466190848983,475.49455908664004,1 44752U 19074AR  25345.85213131  .00013410  00000+0  46135-3 0  9996,2 44752  53.0703 195.6480 0001233 346.0025  14.0941 15.30389401335884
STARLINK-1048,44753,53.0535,0.0001539,15.06403914,546.1337528210606,548.265371414881,1 44753U 19074AS  25346.08279555  .00006302  00000+0  44154-3 0  9996,2 44753  53.0535 219.8977 0001539  89.6423 270.4742 15.06403914335548
STARLINK-1053,44758,53.0377,0.0003499,15.66991143,365.1580210491793,369.87863064620797,1 44758U 19074AX  25345.51239676  .00110075  00000+0  10071-2 0  9991,2 44758  53.0377 163.9832 0003499 169.0919 191.0173 15.66991143336297
STARLINK-1060,44765,53.0489,0.0007806,15.75879421,336.8840103338971,347.3756909411122,1 44765U 19074BE  25346.33349537  .00119360  00000+0  74930-3 0  9999,2 44765  53.0489 204.5756 0007806 131.8124  96.3235 15.75879421  5964
STARLINK-1063,44768,53.0536,0.0001503,15.06442397,546.0407599284654,548.122480645724,1 44768U 19074BH  25346.24496979  .00018891  00000+0  12822-2 0  9993,2 44768  53.0536 259.1746 0001503 101.4507 258.6651 15.06442397335021
STARLINK-1067,44771,53.0536,0.0001095,15.06397392,546.4612245518438,547.9778776365329,1 44771U 19074BL  25346.03488649  .00008025  00000+0  55703-3 0  9993,2 44771  53.0536 260.1164 0001095  34.4225 325.6834 15.06397392334985
STARLINK-1068,44772,53.0545,0.0001285,15.16241811,516.3250491612007,518.0971536232582,1 44772U 19074BM  25346.33349537  .01865945  00000+0  86421-1 0  9991,2 44772  53.0545 238.4829 0001285  90.1949 291.6752 15.16241811  5784
STARLINK-1112,44925,53.0483,0.0007823,15.64372612,369.7607078915844,380.32673444792636,1 44925U 20001M   25346.33349537  .00263331  00000+0  26152-2 0  9999,2 44925  53.0483 321.0179 0007823  36.1438 311.8083 15.64372612  5834
STARLINK-1114,44927,53.056,0.0001444,15.06395426,546.2255542689081,548.2255989810374,1 44927U 20001P   25346.26340813  .00005144  00000+0  36404-3 0  9999,2 44927  53.0560  19.0920 0001444 106.8063 253.3085 15.06395426326676
STARLINK-1123,44930,53.0571,0.0001434,15.06404477,546.2047435964969,548.1909296276381,1 44930U 20001S   25346.27814778  .00000968  00000+0  83838-4 0  9993,2 44930  53.0571  19.0251 0001434  97.0220 263.0932 15.06404477326670
STARLINK-1144,44933,53.0413,0.0002401,15.73981554,345.9160175283814,349.1456832301337,1 44933U 20001V   25346.33349537  .00269061  00000+0  17991-2 0  9995,2 44933  53.0413 295.5390 0002401 109.6033  24.0712 15.73981554  5912
STARLINK-1094,44941,53.0574,0.0001491,15.06405702,546.1615153202865,548.2266490489937,1 44941U 20001AD  25346.29104997  .00003386  00000+0  24606-3 0  9996,2 44941  53.0574 358.9690 0001491  95.2700 264.8460 15.06405702326951
STARLINK-1122,44949,53.056,0.0001756,15.0641132,545.9607788713993,548.392949100431,1 44949U 20001AM  25346.31316790  .00011563  00000+0  79361-3 0  9997,2 44949  53.0560 358.8649 0001756  81.7266 278.3922 15.06411320326954
STARLINK-1080,44961,53.0564,0.0001416,15.06380123,546.2918407681509,548.2531167325333,1 44961U 20001AZ  25346.24499497 -.00001868  00000+0 -10661-3 0  9996,2 44961  53.0564 339.1751 0001416  86.2231 273.8920 15.06380123327239
STARLINK-1090,44968,53.0554,0.000121,15.06411598,546.3380490923091,548.0139748412048,1 44968U 20001BG  25346.24866298  .00008864  00000+0  61300-3 0  9997,2 44968  53.0554 339.1566 0001210  89.1400 270.9727 15.06411598327235
STARLINK-1107,44972,52.9861,0.000508,16.35698867,173.93903174179377,180.59932441872206,1 44972U 20001BL  25346.94690818  .11408570  12195-4  13619-2 0  9994,2 44972  52.9861 226.5078 0005080 232.1377 127.9208 16.35698867328862
STARLINK-1132,45044,53.0562,0.0001275,15.06424461,546.2536171280963,548.0195618934213,1 45044U 20006A   25346.27444597  .00003540  00000+0  25627-3 0  9993,2 45044  53.0562 299.0421 0001275  98.2026 261.9108 15.06424461323568
STARLINK-1131,45047,53.0557,0.0001406,15.06405211,546.2218852581036,548.1692887815734,1 45047U 20006D   25346.25056984  .00002601  00000+0  19344-3 0  9999,2 45047  53.0557 319.6901 0001406 101.8594 258.2553 15.06405211323277
STARLINK-1134,45048,53.0358,0.0004105,15.32708284,464.92577004682335,470.5462317805741,1 45048U 20006E   25346.09218508  .00096070  00000+0  29720-2 0  9995,2 45048  53.0358 291.2165 0004105 347.4558  12.6339 15.32708284323663
STARLINK-1156,45054,53.0554,0.0001567,15.06413494,546.0850054420807,548.2553967188996,1 45054U 20006L   25346.22101954  .00005570  00000+0  39239-3 0  9995,2 45054  53.0554 319.2820 0001567  99.6250 260.4916 15.06413494323279
STARLINK-1159,45057,53.0537,0.0006734,15.56552525,393.08057181087406,402.2061928297826,1 45057U 20006P   25346.24244159  .00054289  00000+0  75210-3 0  9995,2 45057  53.0537 305.8246 0006734  65.3497 294.8214 15.56552525323478
STARLINK-1166,45060,53.0559,0.0001444,15.06408881,546.1843226847359,548.184355487464,1 45060U 20006S   25346.24681481  .00005272  00000+0  37247-3 0  9998,2 45060  53.0559 319.1662 0001444 103.6641 256.4509 15.06408881323286
STARLINK-1169,45061,53.0566,0.0001527,15.06383128,546.2057600498802,548.3207772919322,1 45061U 20006T   25346.25420041 -.00002018  00000+0 -11670-3 0  9992,2 45061  53.0566 319.1321 0001527  99.7250 260.3912 15.06383128323288
STARLINK-1171,45062,53.0527,0.0012317,15.39782372,438.3460983463965,455.15853068377237,1 45062U 20006U   25346.33349537  .00170979  00000+0  41579-2 0  9992,2 45062  53.0527 307.6953 0012317  57.0682  12.4905 15.39782372  5829
STARLINK-1133,45064,53.056,0.0001436,15.06436737,546.1045027277305,548.0934304973407,1 45064U 20006W   25346.25233924  .00017405  00000+0  11833-2 0  9991,2 45064  53.0560 299.1412 0001436 111.2795 248.8348 15.06436737323566
STARLINK-1167,45071,53.0556,0.0001733,15.06429071,545.922313478538,548.3226084077014,1 45071U 20006AD  25346.14544549  .00004339  00000+0  30977-3 0  9998,2 45071  53.0556 299.6195 0001733  77.4882 282.6301 15.06429071323548
STARLINK-1168,45072,53.0561,0.0001112,15.06346387,546.6057619029698,548.1459959672447,1 45072U 20006AE  25346.14916676 -.00015074  00000+0 -99667-3 0  9994,2 45072  53.0561 299.6024 0001112  71.9287 288.1823 15.06346387323543
STARLINK-1172,45074,53.0547,0.0001299,15.06406534,546.2919320653928,548.0911324180679,1 45074U 20006AG  25346.09385168  .00001963  00000+0  15058-3 0  9998,2 45074  53.0547 299.8544 0001299  94.0631 266.0507 15.06406534323537
STARLINK-1153,45080,53.0548,0.0001232,15.06427263,546.2748093817881,547.9811946782884,1 45080U 20006AN  25346.27077769  .00016592  00000+0  11293-2 0  9990,2 45080  53.0548 299.0565 0001232  82.2346 277.8783 15.06427263323560
STARLINK-1151,45081,53.0544,0.0001353,15.1720661,513.3550563707122,515.2201464678546,1 45081U 20006AP  25346.33349537  .02013382  00000+0  91485-1 0  9999,2 45081  53.0544 298.3270 0001353  65.6227 267.9313 15.17206610  5793
STARLINK-1185,45087,53.0562,0.0001483,15.06398256,546.1898730684297,548.2439330360758,1 45087U 20006AV  25346.23208215  .00004852  00000+0  34443-3 0  9994,2 45087  53.0562 279.2339 0001483  65.7754 294.3390 15.06398256323847
STARLINK-1183,45088,53.0555,0.000155,15.06391935,546.1628432541875,548.3097089697812,1 45088U 20006AW  25346.18786437  .00001633  00000+0  12851-3 0  9999,2 45088  53.0555 279.4304 0001550  82.3434 277.7731 15.06391935323839
